NAVSTAR 48 (USA 151)    
1 26407U 00040A   26133.39291405  .00000025  00000+0  00000+0 0  9996
2 26407  54.8574 216.5443 0121419 302.3496  58.8974  2.00557371189250
NAVSTAR 51 (USA 166)    
1 27663U 03005A   26133.27759691  .00000024  00000+0  00000+0 0  9997
2 27663  54.8884 216.3559 0148029  53.0086   0.4712  2.00562400170618
NAVSTAR 54 (USA 177)    
1 28190U 04009A   26133.46029690 -.00000035  00000+0  00000+0 0  9991
2 28190  54.8598 277.0895 0114526 171.5395 167.8155  2.00555784162243
NAVSTAR 56 (USA 180)    
1 28474U 04045A   26133.15165181 -.00000049  00000+0  00000+0 0  9993
2 28474  55.1565 326.3071 0169928 315.4859 226.0967  2.00554259157722
NAVSTAR 57 (USA 183)    
1 28874U 05038A   26133.41951222 -.00000034  00000+0  00000+0 0  9992
2 28874  54.9077 274.5799 0127710 295.9425  41.1639  2.00568027151135
NAVSTAR 58 (USA 190)    
1 29486U 06042A   26133.12393664  .00000115  00000+0  00000+0 0  9995
2 29486  54.7054 152.7310 0106151  53.7087 327.8882  2.00571828143693
NAVSTAR 59 (USA 192)    
1 29601U 06052A   26133.01820148  .00000023  00000+0  00000+0 0  9993
2 29601  54.9399 215.4003 0085929  90.4979 270.5379  2.00556196142706
NAVSTAR 60 (USA 196)    
1 32260U 07047A   26133.32301870  .00000005  00000+0  00000+0 0  9993
2 32260  54.0705  81.5020 0165232  86.7458 275.1167  2.00556985136110
NAVSTAR 61 (USA 199)    
1 32384U 07062A   26131.14064606 -.00000028  00000+0  00000+0 0  9994
2 32384  55.0627 275.6413 0034959 163.2299 188.0453  2.00557804134768
NAVSTAR 62 (USA 201)    
1 32711U 08012A   26133.23730382  .00000115  00000+0  00000+0 0  9993
2 32711  54.4914 151.3210 0210347 247.3663 110.4538  2.00571473133057
NAVSTAR 64 (USA 206)    
1 35752U 09043A   26133.37603103 -.00000072  00000+0  00000+0 0  9994
2 35752  56.1893  28.8193 0053297  81.8694  30.5658  2.00556103122665
NAVSTAR 65 (USA 213)    
1 36585U 10022A   26132.56484807  .00000028  00000+0  00000+0 0  9996
2 36585  54.2742 209.9972 0126470  66.1094 298.1774  2.00560642116884
NAVSTAR 67 (USA 239)    
1 38833U 12053A   26133.41661198  .00000113  00000+0  00000+0 0  9990
2 38833  53.5788 145.0237 0178587  65.3505 296.5514  2.00566902 98745
NAVSTAR 68 (USA 242)    
1 39166U 13023A   26133.28260934 -.00000033  00000+0  00000+0 0  9998
2 39166  54.5327 270.3950 0141823  50.8306 310.3961  2.00563631 95182
NAVSTAR 69 (USA 248)    
1 39533U 14008A   26133.28377154  .00000113  00000+0  00000+0 0  9991
2 39533  53.6480 150.7433 0084064 230.5864 128.7251  2.00557540 88981
NAVSTAR 70 (USA 251)    
1 39741U 14026A   26133.06069686 -.00000049  00000+0  00000+0 0  9995
2 39741  56.5146 332.8851 0038637 326.8631  32.9280  2.00563544 87838
NAVSTAR 71 (USA 256)    
1 40105U 14045A   26133.15176745  .00000028  00000+0  00000+0 0  9993
2 40105  55.3311  89.8601 0032052 118.7710 241.5280  2.00556042 85378
NAVSTAR 72 (USA 258)    
1 40294U 14068A   26133.02448147 -.00000070  00000+0  00000+0 0  9999
2 40294  56.9644  32.3098 0065987  69.3672 291.3670  2.00573999 84507
NAVSTAR 73 (USA 260)    
1 40534U 15013A   26133.16026235  .00000041  00000+0  00000+0 0  9999
2 40534  53.1714 205.6264 0108975  40.0205 320.8447  2.00553462 81122
NAVSTAR 74 (USA 262)    
1 40730U 15033A   26132.82084350 -.00000033  00000+0  00000+0 0  9995
2 40730  54.0113 268.5441 0115000  30.0446 330.5868  2.00558012 79286
NAVSTAR 75 (USA 265)    
1 41019U 15062A   26132.87823252 -.00000070  00000+0  00000+0 0  9996
2 41019  56.9367  32.1717 0111286 231.3768 127.6514  2.00566935 77122
NAVSTAR 76 (USA 266)    
1 41328U 16007A   26132.96693977  .00000032  00000+0  00000+0 0  9995
2 41328  55.5031  90.8552 0096124 247.2479 111.7128  2.00553357 75132
NAVSTAR 77 (USA 289)    
1 43873U 18109A   26133.27601630  .00000036  00000+0  00000+0 0  9991
2 43873  55.6614  93.5638 0038033 198.7177 277.7554  2.00560030 54377
NAVSTAR 78 (USA 293)    
1 44506U 19056A   26133.25281141 -.00000051  00000+0  00000+0 0  9994
2 44506  55.6531 332.5316 0060309 197.3951 165.0062  2.00569280 49377
NAVSTAR 79 (USA 304)    
1 45854U 20041A   26131.60465042 -.00000072  00000+0  00000+0 0  9991
2 45854  56.6469  30.3638 0062614 204.8525 347.3313  2.00559506 43308
NAVSTAR 80 (USA 309)    
1 46826U 20078A   26129.38239204  .00000003  00000+0  00000+0 0  9995
2 46826  53.9857 212.3527 0071735 206.1053 156.6468  2.00564987 40738
NAVSTAR 81 (USA 319)    
1 48859U 21054A   26129.62249818 -.00000058  00000+0  00000+0 0  9998
2 48859  55.1920 334.0106 0024301 229.3425 132.5705  2.00571665 35982
NAVSTAR 82 (USA 343)    
1 55268U 23009A   26133.16859779  .00000117  00000+0  00000+0 0  9994
2 55268  55.1171 149.8956 0005988 314.6072 125.6860  2.00573878 24546
NAVSTAR 83 (USA 440)    
1 62339U 24242A   26132.18781948 -.00000054  00000+0  00000+0 0  9995
2 62339  54.8657 335.6414 0017084   3.1785 171.5342  2.00570893 10536
NAVSTAR 84 (USA 545)    
1 64202U 25116A   26120.52613794 -.00000106  00000+0  00000+0 0  9993
2 64202  55.2044  33.0485 0009186 336.4638 239.4024  2.00549603  6915
NAVSTAR 85 (USA 581)    
1 67588U 26017A   26131.30387553  .00000038  00000+0  00000+0 0  9996
2 67588  55.0654  90.2350 0023085 255.2038 104.5234  2.00571918430877
